NORAD_CAT_ID,OBJECT_NAME,OBJECT_TYPE,EPOCH,MEAN_MOTION,ECCENTRICITY,INCLINATION,RA_OF_ASC_NODE,ARG_OF_PERICENTER,MEAN_ANOMALY,BSTAR,MEAN_MOTION_DOT,MEAN_MOTION_DDOT,TLE_LINE0,TLE_LINE1,TLE_LINE2,SEMIMAJOR_AXIS,PERIOD,APOGEE,PERIGEE,DECAYED
53871.0,STARLINK-4740,PAYLOAD,2024-05-17 23:37:14,15.08854586,9.27e-05,53.2172,349.7633,100.882,259.2276,0.0017767,0.00028113,0.0,0 STARLINK-4740,1 53871U 22114BF  24138.98419174  .00028113  00000-0  17767-2 0  9990,2 53871  53.2172 349.7633 0000927 100.8820 259.2276 15.08854586 93115,6917.836,95.437,540.342,539.06,0.0
53871.0,STARLINK-4740,PAYLOAD,2024-05-18 20:17:14,15.08876832,0.0001374,53.2178,345.897,100.9409,259.1738,0.0016394,0.00025926,0.0,0 STARLINK-4740,1 53871U 22114BF  24139.84530458  .00025926  00000-0  16394-2 0  9999,2 53871  53.2178 345.8970 0001374 100.9409 259.1738 15.08876832 93247,6917.768,95.435,540.583,538.682,0.0
53871.0,STARLINK-4740,PAYLOAD,2024-05-19 13:46:30,15.08813989,0.0001752,53.2178,342.6264,73.4934,286.625,-4.4951e-06,-3.6e-06,0.0,0 STARLINK-4740,1 53871U 22114BF  24140.57395912 -.00000360  00000-0 -44951-5 0  9995,2 53871  53.2178 342.6264 0001752  73.4934 286.6250 15.08813989 93894,6917.96,95.439,541.037,538.613,0.0
53871.0,STARLINK-4740,PAYLOAD,2024-05-19 20:08:03,15.08808941,0.0001551,53.2191,341.4354,77.7259,282.3906,-0.00021511,-3.707e-05,0.0,0 STARLINK-4740,1 53871U 22114BF  24140.83892653 -.00003707  00000-0 -21511-3 0  9991,2 53871  53.2191 341.4354 0001551  77.7259 282.3906 15.08808941 93398,6917.975,95.44,540.913,538.767,0.0
53871.0,STARLINK-4740,PAYLOAD,2024-05-19 23:18:49,15.0882009,0.0001253,53.2184,340.8403,85.5487,274.5648,8.0187e-05,9.88e-06,0.0,0 STARLINK-4740,1 53871U 22114BF  24140.97140973  .00000988  00000-0  80187-4 0  9998,2 53871  53.2184 340.8403 0001253  85.5487 274.5648 15.08820090 93415,6917.941,95.439,540.673,538.939,0.0
53871.0,STARLINK-4740,PAYLOAD,2024-05-20 19:58:49,15.08863434,0.0001514,53.2179,336.9757,84.999,275.1175,0.0018885,0.00029915,0.0,0 STARLINK-4740,1 53871U 22114BF  24141.83252199  .00029915  00000-0  18885-2 0  9993,2 53871  53.2179 336.9757 0001514  84.9990 275.1175 15.08863434 93544,6917.809,95.436,540.721,538.626,0.0
53871.0,STARLINK-4740,PAYLOAD,2024-05-21 00:44:58,15.08898855,0.000136,53.2175,336.0862,57.4123,302.7,0.002087,0.00033137,0.0,0 STARLINK-4740,1 53871U 22114BF  24142.03123184  .00033137  00000-0  20870-2 0  9995,2 53871  53.2175 336.0862 0001360  57.4123 302.7000 15.08898855 93572,6917.7,95.434,540.506,538.625,0.0
53871.0,STARLINK-4740,PAYLOAD,2024-05-21 18:14:13,15.08858339,0.0001299,53.2182,332.8137,71.371,288.7423,0.0017742,0.00028075,0.0,0 STARLINK-4740,1 53871U 22114BF  24142.75987334  .00028075  00000-0  17742-2 0  9998,2 53871  53.2182 332.8137 0001299  71.3710 288.7423 15.08858339 93684,6917.824,95.436,540.588,538.791,0.0
53871.0,STARLINK-4740,PAYLOAD,2024-05-22 19:40:21,15.08889446,0.0001429,53.2176,328.0578,62.7623,297.3515,0.0011928,0.00018772,0.0,0 STARLINK-4740,1 53871U 22114BF  24143.81969328  .00018772  00000-0  11928-2 0  9992,2 53871  53.2176 328.0578 0001429  62.7623 297.3515 15.08889446 93844,6917.729,95.434,540.583,538.606,0.0
53871.0,STARLINK-4740,PAYLOAD,2024-05-22 22:51:07,15.08894346,0.0001395,53.2176,327.462,64.4131,295.7005,0.0011494,0.00018079,0.0,0 STARLINK-4740,1 53871U 22114BF  24143.95216814  .00018079  00000-0  11494-2 0  9990,2 53871  53.2176 327.4620 0001395  64.4131 295.7005 15.08894346 94404,6917.714,95.434,540.544,538.614,0.0
53871.0,STARLINK-4740,PAYLOAD,2024-05-23 21:06:32,15.08828393,0.0001348,53.2166,323.2974,93.4672,266.6475,0.00029003,4.329e-05,0.0,0 STARLINK-4740,1 53871U 22114BF  24144.87954535  .00004329  00000-0  29003-3 0  9990,2 53871  53.2166 323.2974 0001348  93.4672 266.6475 15.08828393 94002,6917.916,95.438,540.713,538.848,0.0
53871.0,STARLINK-4740,PAYLOAD,2024-05-24 20:57:20,15.0884817,0.0001405,53.2167,318.836,94.8196,265.2957,0.0021991,0.00034892,0.0,0 STARLINK-4740,1 53871U 22114BF  24145.87315441  .00034892  00000-0  21991-2 0  9993,2 53871  53.2167 318.8360 0001405  94.8196 265.2957 15.08848170 94692,6917.855,95.437,540.692,538.748,0.0
53871.0,STARLINK-4740,PAYLOAD,2024-05-25 11:15:49,15.08829387,0.000127,53.2166,316.1608,101.9815,258.1319,0.0004095,6.233e-05,0.0,0 STARLINK-4740,1 53871U 22114BF  24146.46931928  .00006233  00000-0  40950-3 0  9998,2 53871  53.2166 316.1608 0001270 101.9815 258.1319 15.08829387 94248,6917.913,95.438,540.656,538.899,0.0
53871.0,STARLINK-4740,PAYLOAD,2024-05-26 11:06:36,15.08840017,0.0001523,53.217,311.7037,84.1998,275.9167,0.0010135,0.00015879,0.0,0 STARLINK-4740,1 53871U 22114BF  24147.46292539  .00015879  00000-0  10135-2 0  9994,2 53871  53.2170 311.7037 0001523  84.1998 275.9167 15.08840017 94932,6917.88,95.438,540.799,538.692,0.0
53871.0,STARLINK-4740,PAYLOAD,2024-05-26 20:38:55,15.08854674,0.0001443,53.2177,309.9176,91.8575,268.2583,0.00080574,0.00012564,0.0,0 STARLINK-4740,1 53871U 22114BF  24147.86036125  .00012564  00000-0  80574-3 0  9998,2 53871  53.2177 309.9176 0001443  91.8575 268.2583 15.08854674 94457,6917.836,95.437,540.699,538.702,0.0
53871.0,STARLINK-4740,PAYLOAD,2024-05-27 14:08:09,15.08846288,0.0001481,53.2178,306.6411,99.6688,260.4471,0.00038548,5.853e-05,0.0,0 STARLINK-4740,1 53871U 22114BF  24148.58900021  .00005853  00000-0  38548-3 0  9990,2 53871  53.2178 306.6411 0001481  99.6688 260.4471 15.08846288 95102,6917.861,95.437,540.751,538.702,0.0
53871.0,STARLINK-4740,PAYLOAD,2024-05-27 20:29:42,15.08844245,0.0001487,53.2183,305.4553,105.9792,254.1364,0.00017294,2.466e-05,0.0,0 STARLINK-4740,1 53871U 22114BF  24148.85395931  .00002466  00000-0  17294-3 0  9990,2 53871  53.2183 305.4553 0001487 105.9792 254.1364 15.08844245 94601,6917.867,95.437,540.761,538.704,0.0
53871.0,STARLINK-4740,PAYLOAD,2024-05-28 10:48:10,15.08839125,0.0001581,53.2182,302.7776,110.7492,249.367,0.00012582,1.715e-05,0.0,0 STARLINK-4740,1 53871U 22114BF  24149.45012105  .00001715  00000-0  12582-3 0  9997,2 53871  53.2182 302.7776 0001581 110.7492 249.3670 15.08839125 94699,6917.883,95.438,540.842,538.654,0.0
53871.0,STARLINK-4740,PAYLOAD,2024-05-28 13:58:56,15.08836422,0.0001672,53.2179,302.1819,117.834,242.2821,0.00015479,2.176e-05,0.0,0 STARLINK-4740,1 53871U 22114BF  24149.58260187  .00002176  00000-0  15479-3 0  9996,2 53871  53.2179 302.1819 0001672 117.8340 242.2821 15.08836422 95258,6917.891,95.438,540.913,538.6,0.0
53871.0,STARLINK-4740,PAYLOAD,2024-05-28 17:09:42,15.08839842,0.0001457,53.219,301.5882,109.3775,250.7375,0.00010378,1.364e-05,0.0,0 STARLINK-4740,1 53871U 22114BF  24149.71508098  .00001364  00000-0  10378-3 0  9998,2 53871  53.2190 301.5882 0001457 109.3775 250.7375 15.08839842 95272,6917.881,95.438,540.754,538.738,0.0
53871.0,STARLINK-4740,PAYLOAD,2024-05-29 13:49:44,15.08837617,0.0001425,53.2191,297.728,110.5306,249.5839,-2.1864e-06,-3.23e-06,0.0,0 STARLINK-4740,1 53871U 22114BF  24150.57620623 -.00000323  00000-0 -21864-5 0  9993,2 53871  53.2191 297.7280 0001425 110.5306 249.5839 15.08837617 95404,6917.888,95.438,540.738,538.767,0.0
53871.0,STARLINK-4740,PAYLOAD,2024-05-29 20:11:16,15.08841531,0.0001393,53.2188,296.5355,109.9799,250.1343,3.2232e-05,2.25e-06,0.0,0 STARLINK-4740,1 53871U 22114BF  24150.84116278  .00000225  00000-0  32232-4 0  9998,2 53871  53.2188 296.5355 0001393 109.9799 250.1343 15.08841531 94904,6917.876,95.437,540.704,538.777,0.0
53871.0,STARLINK-4740,PAYLOAD,2024-05-30 13:40:30,15.08843404,0.0001351,53.2188,293.265,108.3823,251.7316,0.00011886,1.604e-05,0.0,0 STARLINK-4740,1 53871U 22114BF  24151.56980151  .00001604  00000-0  11886-3 0  9990,2 53871  53.2188 293.2650 0001351 108.3823 251.7316 15.08843404 95551,6917.87,95.437,540.67,538.8,0.0
53871.0,STARLINK-4740,PAYLOAD,2024-05-30 18:26:39,15.08848637,0.0001246,53.2183,292.3731,96.2944,263.819,0.00017412,2.485e-05,0.0,0 STARLINK-4740,1 53871U 22114BF  24151.76851776  .00002485  00000-0  17412-3 0  9991,2 53871  53.2183 292.3731 0001246  96.2944 263.8190 15.08848637 95588,6917.854,95.437,540.581,538.857,0.0
53871.0,STARLINK-4740,PAYLOAD,2024-05-31 13:31:17,15.08844362,0.0001309,53.2179,288.8058,110.3497,249.7636,8.5541e-05,1.074e-05,0.0,0 STARLINK-4740,1 53871U 22114BF  24152.56340238  .00001074  00000-0  85541-4 0  9998,2 53871  53.2179 288.8058 0001309 110.3497 249.7636 15.08844362 95169,6917.867,95.437,540.638,538.827,0.0
53871.0,STARLINK-4740,PAYLOAD,2024-05-31 16:42:04,15.0884753,0.0001319,53.2178,288.211,89.8359,270.2784,0.00013263,1.824e-05,0.0,0 STARLINK-4740,1 53871U 22114BF  24152.69588092  .00001824  00000-0  13263-3 0  9998,2 53871  53.2178 288.2110 0001319  89.8359 270.2784 15.08847530 95724,6917.857,95.437,540.635,538.81,0.0
53871.0,STARLINK-4740,PAYLOAD,2024-06-01 13:22:05,15.08832176,0.0001337,53.2167,284.3451,84.6676,275.4468,2.9624e-06,-2.41e-06,0.0,0 STARLINK-4740,1 53871U 22114BF  24153.55701371 -.00000241  00000-0  29624-5 0  9994,2 53871  53.2167 284.3451 0001337  84.6676 275.4468 15.08832176 95313,6917.904,95.438,540.694,538.844,0.0
53871.0,STARLINK-4740,PAYLOAD,2024-06-01 14:57:29,15.08832236,0.0001295,53.2162,284.0471,85.1582,274.9558,-2.2407e-06,-3.24e-06,0.0,0 STARLINK-4740,1 53871U 22114BF  24153.62325339 -.00000324  00000-0 -22407-5 0  9993,2 53871  53.2162 284.0471 0001295  85.1582 274.9558 15.08832236 95863,6917.904,95.438,540.665,538.873,0.0
53871.0,STARLINK-4740,PAYLOAD,2024-06-01 18:08:14,15.08842187,0.0001301,53.2176,283.4494,95.0878,265.0263,-1.5845e-05,-5.4e-06,0.0,0 STARLINK-4740,1 53871U 22114BF  24153.75572725 -.00000540  00000-0 -15845-4 0  9997,2 53871  53.2176 283.4494 0001301  95.0878 265.0263 15.08842187 95345,6917.874,95.437,540.639,538.839,0.0
53871.0,STARLINK-4740,PAYLOAD,2024-06-02 14:48:15,15.08846504,0.0001523,53.2173,279.5865,89.4396,270.677,0.00012892,1.765e-05,0.0,0 STARLINK-4740,1 53871U 22114BF  24154.61684260  .00001765  00000-0  12892-3 0  9997,2 53871  53.2173 279.5865 0001523  89.4396 270.6770 15.08846504 96015,6917.861,95.437,540.779,538.672,0.0
